[
    {
        "Altitude(m)": 607895.7817174599,
        "Argument of Periapsis(deg)": 0.0,
        "Eccentricity": 0.0,
        "Inclination(deg)": 60.0,
        "Latitude(deg)": 40.99824298195272,
        "Longitude(deg)": -69.91137196129634,
        "Mean Anomaly(deg)": -229.09089999999998,
        "RAAN(deg)": 240.0,
        "Satellite Name": "Test1 1064",
        "Satellite Number": 1064,
        "Semi-Major Axis(m)": 6980739.136638005,
        "Time(s)": 0
    },
    {
        "Altitude(m)": 607795.0947146894,
        "Argument of Periapsis(deg)": 0.00010418945913296404,
        "Eccentricity": 0.0,
        "Inclination(deg)": 60.0,
        "Latitude(deg)": 40.530567411065284,
        "Longitude(deg)": -69.41477854934809,
        "Mean Anomaly(deg)": -228.47079385453813,
        "RAAN(deg)": 239.99957995086024,
        "Satellite Name": "Test1 1064",
        "Satellite Number": 1064,
        "Semi-Major Axis(m)": 6980739.136638005,
        "Time(s)": 10
    }
]